ONEWEB-0319             
1 49105U 21075AG  24326.38687999  .00000055  00000+0  10804-3 0  9995
2 49105  87.9077 119.9942 0001723 112.2622 247.8692 13.17649750158176
ONEWEB-0323             
1 49106U 21075AH  24326.34711541 -.00000245  00000+0 -71749-3 0  9991
2 49106  87.8859 104.7257 0001947 122.9526 237.1790 13.12442412159414
ONEWEB-0329             
1 49107U 21075AJ  24326.85094520  .00000043  00000+0  78461-4 0  9992
2 49107  87.9075 119.9059 0001574 104.9435 255.1871 13.17648630158211
ONEWEB-0330             
1 49108U 21075AK  24326.39701427  .00000103  00000+0  23091-3 0  9998
2 49108  87.9076 119.9983 0001289 100.3027 259.8250 13.17649734158194
ONEWEB-0292             
1 49186U 21083A   24326.23258937  .00000358  00000+0  94457-3 0  9995
2 49186  87.8928  74.2235 0001755 106.9191 253.2131 13.13472875155717
ONEWEB-0303             
1 49187U 21083B   24326.28562175  .00000121  00000+0  27372-3 0  9993
2 49187  87.9097  89.4528 0001757 106.2261 253.9065 13.18686750154471
ONEWEB-0306             
1 49188U 21083C   24326.27611900  .00000183  00000+0  43031-3 0  9992
2 49188  87.9098  89.4412 0001467  97.4334 262.6965 13.18684059154516
ONEWEB-0307             
1 49189U 21083D   24325.76997054  .00000290  00000+0  76014-3 0  9999
2 49189  87.8931  74.3175 0001390  97.6698 262.4589 13.13472791155650
